{
  "norad_id": 37168,
  "name": "SBSS (USA 216)",
  "history": [
    {
      "epoch": "2026-03-28T21:46:53.999616Z",
      "apogee_km": 575.869663708776,
      "perigee_km": 460.61872050254533,
      "latitude_deg": -4.760782716053869,
      "longitude_deg": -1.9021090968867713,
      "height_km": 497.11162171924406,
      "semi_major_axis_km": 6896.38119210566,
      "eccentricity": 0.0083559,
      "inclination_deg": 97.7452,
      "raan_deg": 331.7896,
      "arg_perigee_deg": 119.8678,
      "mean_anomaly_deg": 63.9192,
      "mean_motion_rev_day": 15.1590112
    },
    {
      "epoch": "2026-03-29T05:33:53.693280Z",
      "apogee_km": 575.861972279039,
      "perigee_km": 460.59200673998384,
      "latitude_deg": 26.768677749349706,
      "longitude_deg": -114.08194571258004,
      "height_km": 473.81114375839013,
      "semi_major_axis_km": 6896.363989509511,
      "eccentricity": 0.0083573,
      "inclination_deg": 97.7452,
      "raan_deg": 332.1204,
      "arg_perigee_deg": 118.7654,
      "mean_anomaly_deg": 33.7035,
      "mean_motion_rev_day": 15.15906792
    },
    {
      "epoch": "2026-03-30T05:20:32.980416Z",
      "apogee_km": 575.8500117769299,
      "perigee_km": 460.5337381273048,
      "latitude_deg": 23.405239999450806,
      "longitude_deg": -111.26764057875107,
      "height_km": 477.41929532159435,
      "semi_major_axis_km": 6896.328874952117,
      "eccentricity": 0.0083607,
      "inclination_deg": 97.745,
      "raan_deg": 333.131,
      "arg_perigee_deg": 115.4113,
      "mean_anomaly_deg": 40.3524,
      "mean_motion_rev_day": 15.1591837
    },
    {
      "epoch": "2026-03-30T12:52:22.704096Z",
      "apogee_km": 575.8474582707222,
      "perigee_km": 460.514813033702,
      "latitude_deg": 65.24099646418726,
      "longitude_deg": -64.62380660350108,
      "height_km": 490.6212089080836,
      "semi_major_axis_km": 6896.318135652212,
      "eccentricity": 0.0083619,
      "inclination_deg": 97.745,
      "raan_deg": 333.4511,
      "arg_perigee_deg": 114.3475,
      "mean_anomaly_deg": 312.6754,
      "mean_motion_rev_day": 15.15921911
    },
    {
      "epoch": "2026-03-31T21:53:53.678976Z",
      "apogee_km": 575.7840621668711,
      "perigee_km": 460.4825603250265,
      "latitude_deg": 10.776828211712596,
      "longitude_deg": 175.62278201915564,
      "height_km": 528.7772350182834,
      "semi_major_axis_km": 6896.2703112459485,
      "eccentricity": 0.0083597,
      "inclination_deg": 97.7445,
      "raan_deg": 334.8546,
      "arg_perigee_deg": 109.707,
      "mean_anomaly_deg": 262.1708,
      "mean_motion_rev_day": 15.1593768
    },
    {
      "epoch": "2026-04-01T20:35:52.863936Z",
      "apogee_km": 575.7501565752937,
      "perigee_km": 460.4628950568149,
      "latitude_deg": 48.76215842984781,
      "longitude_deg": 25.508400127324347,
      "height_km": 473.1653493704604,
      "semi_major_axis_km": 6896.243525816054,
      "eccentricity": 0.0083587,
      "inclination_deg": 97.7441,
      "raan_deg": 335.8193,
      "arg_perigee_deg": 106.5228,
      "mean_anomaly_deg": 23.8254,
      "mean_motion_rev_day": 15.15946512
    }
  ]
}